[{"OBJECT_NAME":"STARLINK-2725","OBJECT_ID":"2021-044AV","EPOCH":"2026-03-09T06:15:38.880288","MEAN_MOTION":15.30195858,"ECCENTRICITY":0.00012383,"INCLINATION":53.1605,"RA_OF_ASC_NODE":77.2652,"ARG_OF_PERICENTER":98.882,"MEAN_ANOMALY":261.2321,"EPHEMERIS_TYPE":0,"CLASSIFICATION_TYPE":"U","NORAD_CAT_ID":48681,"ELEMENT_SET_NO":999,"REV_AT_EPOCH":26429,"BSTAR":0.00025290557,"MEAN_MOTION_DOT":7.137e-5,"MEAN_MOTION_DDOT":0},{"OBJECT_NAME":"SL-8 DEB","OBJECT_ID":"1965-020AH","EPOCH":"2026-03-09T21:20:25.012032","MEAN_MOTION":15.12110764,"ECCENTRICITY":0.01461339,"INCLINATION":55.8593,"RA_OF_ASC_NODE":285.3244,"ARG_OF_PERICENTER":198.731,"MEAN_ANOMALY":160.8307,"EPHEMERIS_TYPE":0,"CLASSIFICATION_TYPE":"U","NORAD_CAT_ID":1392,"ELEMENT_SET_NO":999,"REV_AT_EPOCH":8107,"BSTAR":0.0016215192,"MEAN_MOTION_DOT":0.00036476,"MEAN_MOTION_DDOT":0}]
